[{"OBJECT_NAME":"NUSAT-41 (C PAYNE-G)","OBJECT_ID":"2023-084N","EPOCH":"2026-03-09T21:55:54.837696","MEAN_MOTION":15.29680045,"ECCENTRICITY":0.00062175,"INCLINATION":97.5351,"RA_OF_ASC_NODE":204.1011,"ARG_OF_PERICENTER":322.2064,"MEAN_ANOMALY":37.8738,"EPHEMERIS_TYPE":0,"CLASSIFICATION_TYPE":"U","NORAD_CAT_ID":56944,"ELEMENT_SET_NO":999,"REV_AT_EPOCH":15260,"BSTAR":0.00059912824,"MEAN_MOTION_DOT":0.0001718,"MEAN_MOTION_DDOT":0},{"OBJECT_NAME":"STARLINK-32727","OBJECT_ID":"2025-018Y","EPOCH":"2026-03-09T22:06:14.412960","MEAN_MOTION":15.30214094,"ECCENTRICITY":0.00018273,"INCLINATION":53.16,"RA_OF_ASC_NODE":305.6858,"ARG_OF_PERICENTER":165.6623,"MEAN_ANOMALY":194.443,"EPHEMERIS_TYPE":0,"CLASSIFICATION_TYPE":"U","NORAD_CAT_ID":62828,"ELEMENT_SET_NO":999,"REV_AT_EPOCH":6419,"BSTAR":0.00098132864,"MEAN_MOTION_DOT":0.00028831,"MEAN_MOTION_DDOT":0}]
